OBJECT_NAME,OBJECT_ID,EPOCH,MEAN_MOTION,ECCENTRICITY,INCLINATION,RA_OF_ASC_NODE,ARG_OF_PERICENTER,MEAN_ANOMALY,EPHEMERIS_TYPE,CLASSIFICATION_TYPE,NORAD_CAT_ID,ELEMENT_SET_NO,REV_AT_EPOCH,BSTAR,MEAN_MOTION_DOT,MEAN_MOTION_DDOT
GUOWANG OBJECT A,2026-137A,2026-06-29T07:15:31.813056,13.89813333,.0012626,49.9990,207.1472,265.4325,94.5131,0,U,69572,999,170,.10497E-3,-.16E-6,0
GUOWANG OBJECT B,2026-137B,2026-06-29T07:11:17.105856,13.89805036,.0011868,49.9987,207.1306,264.8119,95.1425,0,U,69573,999,171,.78126E-4,-.49E-6,0
GUOWANG OBJECT C,2026-137C,2026-06-29T10:36:54.384768,13.89815871,.0011906,49.9949,206.5421,266.5579,93.3958,0,U,69574,999,173,.99167E-4,-.23E-6,0
GUOWANG OBJECT D,2026-137D,2026-06-28T19:03:32.167584,13.89828494,.00111177,49.9947,209.1104,263.2151,96.7482,0,U,69575,999,164,.23888525E-4,-.116E-5,0
GUOWANG OBJECT E,2026-137E,2026-06-28T19:02:05.529984,13.89826333,.00112147,50.0005,209.1231,266.1215,93.8401,0,U,69576,999,164,.11997176E-3,.2E-7,0
GUOWANG OBJECT F,2026-137F,2026-06-29T07:05:31.553376,13.89810935,.001083,49.9996,207.1136,267.5035,92.4623,0,U,69577,999,171,.14579E-3,.34E-6,0
GUOWANG OBJECT G,2026-137G,2026-06-29T07:04:07.126752,13.89796011,.0010829,49.9948,207.0926,267.3581,92.6078,0,U,69578,999,171,.87516E-4,-.38E-6,0
GUOWANG OBJECT H,2026-137H,2026-06-25T11:38:14.756064,13.92076941,.0010122,49.9967,222.2731,259.8752,100.1006,0,U,69579,999,118,.1427E-3,.37E-6,0
GUOWANG OBJECT J,2026-137J,2026-06-27T06:41:01.268160,13.91997107,.0011832,49.9961,215.0979,257.3150,102.6427,0,U,69580,999,143,.13174E-3,.22E-6,0
CENTISPACE-1 GROUP 05 OBJECT A,2026-138A,2026-06-29T10:17:46.044096,14.15474932,.0010256,55.1408,235.9608,307.3877,52.6163,0,U,69582,999,175,-.12009E-3,-.389E-5,0
CENTISPACE-1 GROUP 05 OBJECT B,2026-138B,2026-06-29T10:15:29.387808,14.15656040,.000922,55.1407,235.9505,307.2791,52.7342,0,U,69583,999,175,-.11985E-3,-.389E-5,0
CENTISPACE-1 GROUP 05 OBJECT C,2026-138C,2026-06-29T11:56:05.492256,14.15739986,.0009161,55.1410,235.6942,309.2892,50.7269,0,U,69584,999,176,-.10794E-3,-.366E-5,0
CENTISPACE-1 GROUP 05 OBJECT D,2026-138D,2026-06-29T11:54:02.659968,14.15927342,.0008722,55.1413,235.6772,307.9912,52.0274,0,U,69585,999,176,-.12207E-3,-.395E-5,0
CENTISPACE-1 GROUP 05 OBJECT E,2026-138E,2026-06-29T11:53:13.239168,14.15993709,.0008428,55.1409,235.6814,308.3537,51.6679,0,U,69586,999,176,-.10326E-3,-.358E-5,0
CENTISPACE-1 GROUP 05 OBJECT F,2026-138F,2026-06-29T11:53:55.754016,14.15916885,.0008296,55.1413,235.6853,312.9061,47.1216,0,U,69587,999,176,-.11278E-3,-.377E-5,0
CENTISPACE-1 GROUP 05 OBJECT G,2026-138G,2026-06-29T11:51:50.371200,14.16081426,.0007575,55.1412,235.6746,312.3111,47.7221,0,U,69588,999,176,-.10161E-3,-.355E-5,0
SPACEMOBILE-008,2026-139A,2026-06-29T11:53:07.694016,15.12783270,.0004155,52.9934,206.6872,17.0724,343.0406,0,U,69589,999,184,.41293E-4,.432E-5,0
SPACEMOBILE-009,2026-139B,2026-06-29T11:54:21.515040,15.12676658,.0004342,52.9926,206.6887,11.3653,348.7435,0,U,69590,999,184,.39083E-4,.391E-5,0
SPACEMOBILE-010,2026-139C,2026-06-29T08:46:00.625728,15.12507818,.0004188,52.9931,207.2991,1.0660,359.0339,0,U,69591,999,183,.39589E-4,.397E-5,0
KUIPER-00423,2026-140A,2026-06-29T09:32:14.578944,15.38293655,.001398,51.8803,339.5507,208.7624,151.2594,0,U,69592,999,311,.81954E-3,.31246E-3,0
KUIPER-00428,2026-140B,2026-06-28T20:00:30.701952,15.36401512,.00057843,51.8814,342.5176,342.3180,17.7604,0,U,69593,999,302,-.3181338E-2,-.113468E-2,0
KUIPER-00481,2026-140C,2026-06-29T09:39:14.910624,15.37609480,.0011476,51.8789,339.5817,217.3768,142.6421,0,U,69594,999,311,.10064E-2,.37602E-3,0
KUIPER-00490,2026-140D,2026-06-29T09:52:43.663008,15.37524364,.0006009,51.8780,339.6395,274.3681,85.6619,0,U,69595,999,311,.6497E-3,.23987E-3,0
KUIPER-00493,2026-140E,2026-06-28T20:03:54.397728,15.36274162,.00067334,51.8817,342.5333,342.5378,17.5375,0,U,69596,999,302,.60538866E-3,.21426E-3,0
KUIPER-00496,2026-140F,2026-06-28T20:09:04.381920,15.35421796,.0008486,51.8801,342.5507,347.8945,12.1836,0,U,69597,999,302,.75011531E-3,.25941E-3,0
KUIPER-00513,2026-140G,2026-06-29T09:50:58.725888,15.37724077,.0006684,51.8816,339.6372,273.2593,86.7629,0,U,69598,999,311,.64741E-3,.24062E-3,0
KUIPER-00516,2026-140H,2026-06-29T09:55:00.632064,15.37318099,.0006296,51.8793,339.6509,292.3330,67.6990,0,U,69599,999,311,.61042E-3,.22358E-3,0
KUIPER-00517,2026-140J,2026-06-29T09:39:33.007104,15.38715680,.0010446,51.8778,339.5809,230.8810,129.1249,0,U,69600,999,311,.69116E-3,.26604E-3,0
