GUOWANG OBJECT A        
1 69572U 26137A   26180.30245154 -.00000016  00000+0  10497-3 0  9990
2 69572  49.9990 207.1472 0012626 265.4325  94.5131 13.89813333  1701
GUOWANG OBJECT B        
1 69573U 26137B   26180.29950354 -.00000049  00000+0  78126-4 0  9994
2 69573  49.9987 207.1306 0011868 264.8119  95.1425 13.89805036  1710
GUOWANG OBJECT C        
1 69574U 26137C   26180.44229612 -.00000023  00000+0  99167-4 0  9998
2 69574  49.9949 206.5421 0011906 266.5579  93.3958 13.89815871  1733
GUOWANG OBJECT D        
1 69575U 26137D   26179.79412231 -.00000116  00000+0  23889-4 0  9997
2 69575  49.9947 209.1104 0011117 263.2151  96.7482 13.89828494  1647
GUOWANG OBJECT E        
1 69576U 26137E   26179.79311956  .00000002  00000+0  11997-3 0  9999
2 69576  50.0005 209.1231 0011214 266.1215  93.8401 13.89826333  1647
GUOWANG OBJECT F        
1 69577U 26137F   26180.29550409  .00000034  00000+0  14579-3 0  9999
2 69577  49.9996 207.1136 0010830 267.5035  92.4623 13.89810935  1714
GUOWANG OBJECT G        
1 69578U 26137G   26180.29452693 -.00000038  00000+0  87516-4 0  9993
2 69578  49.9948 207.0926 0010829 267.3581  92.6078 13.89796011  1714
GUOWANG OBJECT H        
1 69579U 26137H   26176.48489301  .00000037  00000+0  14270-3 0  9990
2 69579  49.9967 222.2731 0010122 259.8752 100.1006 13.92076941  1185
GUOWANG OBJECT J        
1 69580U 26137J   26178.27848690  .00000022  00000+0  13174-3 0  9997
2 69580  49.9961 215.0979 0011832 257.3150 102.6427 13.91997107  1436
CENTISPACE-1 GROUP 05 O*
1 69582U 26138A   26180.42900514 -.00000389  00000+0 -12009-3 0  9998
2 69582  55.1408 235.9608 0010256 307.3877  52.6163 14.15474932  1753
CENTISPACE-1 GROUP 05 O*
1 69583U 26138B   26180.42742347 -.00000389  00000+0 -11985-3 0  9999
2 69583  55.1407 235.9505 0009220 307.2791  52.7342 14.15656040  1754
CENTISPACE-1 GROUP 05 O*
1 69584U 26138C   26180.49728579 -.00000366  00000+0 -10794-3 0  9990
2 69584  55.1410 235.6942 0009161 309.2892  50.7269 14.15739986  1767
CENTISPACE-1 GROUP 05 O*
1 69585U 26138D   26180.49586412 -.00000395  00000+0 -12207-3 0  9992
2 69585  55.1413 235.6772 0008722 307.9912  52.0274 14.15927342  1768
CENTISPACE-1 GROUP 05 O*
1 69586U 26138E   26180.49529212 -.00000358  00000+0 -10326-3 0  9997
2 69586  55.1409 235.6814 0008428 308.3537  51.6679 14.15993709  1766
CENTISPACE-1 GROUP 05 O*
1 69587U 26138F   26180.49578419 -.00000377  00000+0 -11278-3 0  9999
2 69587  55.1413 235.6853 0008296 312.9061  47.1216 14.15916885  1768
CENTISPACE-1 GROUP 05 O*
1 69588U 26138G   26180.49433300 -.00000355  00000+0 -10161-3 0  9995
2 69588  55.1412 235.6746 0007575 312.3111  47.7221 14.16081426  1765
SPACEMOBILE-008         
1 69589U 26139A   26180.49522794  .00000432  00000+0  41293-4 0  9998
2 69589  52.9934 206.6872 0004155  17.0724 343.0406 15.12783270  1847
SPACEMOBILE-009         
1 69590U 26139B   26180.49608235  .00000391  00000+0  39083-4 0  9993
2 69590  52.9926 206.6887 0004342  11.3653 348.7435 15.12676658  1847
SPACEMOBILE-010         
1 69591U 26139C   26180.36528502  .00000397  00000+0  39589-4 0  9995
2 69591  52.9931 207.2991 0004188   1.0660 359.0339 15.12507818  1837
KUIPER-00423            
1 69592U 26140A   26180.39739096  .00031246  00000+0  81954-3 0  9992
2 69592  51.8803 339.5507 0013980 208.7624 151.2594 15.38293655  3119
KUIPER-00428            
1 69593U 26140B   26179.83368868 -.00113468  00000+0 -31813-2 0  9992
2 69593  51.8814 342.5176 0005784 342.3180  17.7604 15.36401512  3022
KUIPER-00481            
1 69594U 26140C   26180.40225591  .00037602  00000+0  10064-2 0  9991
2 69594  51.8789 339.5817 0011476 217.3768 142.6421 15.37609480  3110
KUIPER-00490            
1 69595U 26140D   26180.41161647  .00023987  00000+0  64970-3 0  9991
2 69595  51.8780 339.6395 0006009 274.3681  85.6619 15.37524364  3119
KUIPER-00493            
1 69596U 26140E   26179.83604627  .00021426  00000+0  60539-3 0  9999
2 69596  51.8817 342.5333 0006733 342.5378  17.5375 15.36274162  3021
KUIPER-00496            
1 69597U 26140F   26179.83963405  .00025941  00000+0  75012-3 0  9990
2 69597  51.8801 342.5507 0008486 347.8945  12.1836 15.35421796  3022
KUIPER-00513            
1 69598U 26140G   26180.41040192  .00024062  00000+0  64741-3 0  9996
2 69598  51.8816 339.6372 0006684 273.2593  86.7629 15.37724077  3112
KUIPER-00516            
1 69599U 26140H   26180.41320176  .00022358  00000+0  61042-3 0  9997
2 69599  51.8793 339.6509 0006296 292.3330  67.6990 15.37318099  3111
KUIPER-00517            
1 69600U 26140J   26180.40246536  .00026604  00000+0  69116-3 0  9994
2 69600  51.8778 339.5809 0010446 230.8810 129.1249 15.38715680  3110
